<?xml version="1.0" encoding="UTF-8"?>
<ndm xmlns:xsi="http://www.w3.org/2001/XMLSchema-instance" xsi:noNamespaceSchemaLocation="https://sanaregistry.org/r/ndmxml_unqualified/ndmxml-2.0.0-master-2.0.xsd">
<omm id="CCSDS_OMM_VERS" version="2.0">
<header><CREATION_DATE/><ORIGINATOR/></header><body><segment><metadata><OBJECT_NAME>IRIDIUM 150</OBJECT_NAME><OBJECT_ID>2018-030J</OBJECT_ID><CENTER_NAME>EARTH</CENTER_NAME><REF_FRAME>TEME</REF_FRAME><TIME_SYSTEM>UTC</TIME_SYSTEM><MEAN_ELEMENT_THEORY>SGP4</MEAN_ELEMENT_THEORY></metadata><data><meanElements><EPOCH>2025-12-06T02:22:03.175104</EPOCH><MEAN_MOTION>14.34219947</MEAN_MOTION><ECCENTRICITY>.0002269</ECCENTRICITY><INCLINATION>86.3978</INCLINATION><RA_OF_ASC_NODE>11.1852</RA_OF_ASC_NODE><ARG_OF_PERICENTER>96.9960</ARG_OF_PERICENTER><MEAN_ANOMALY>263.1494</MEAN_ANOMALY></meanElements><tleParameters><EPHEMERIS_TYPE>0</EPHEMERIS_TYPE><CLASSIFICATION_TYPE>U</CLASSIFICATION_TYPE><NORAD_CAT_ID>43257</NORAD_CAT_ID><ELEMENT_SET_NO>999</ELEMENT_SET_NO><REV_AT_EPOCH>40248</REV_AT_EPOCH><BSTAR>.75809827E-4</BSTAR><MEAN_MOTION_DOT>.232E-5</MEAN_MOTION_DOT><MEAN_MOTION_DDOT>0</MEAN_MOTION_DDOT></tleParameters></data></segment></body></omm>
<omm id="CCSDS_OMM_VERS" version="2.0">
<header><CREATION_DATE/><ORIGINATOR/></header><body><segment><metadata><OBJECT_NAME>IRIDIUM 143</OBJECT_NAME><OBJECT_ID>2018-030K</OBJECT_ID><CENTER_NAME>EARTH</CENTER_NAME><REF_FRAME>TEME</REF_FRAME><TIME_SYSTEM>UTC</TIME_SYSTEM><MEAN_ELEMENT_THEORY>SGP4</MEAN_ELEMENT_THEORY></metadata><data><meanElements><EPOCH>2025-12-06T00:14:11.328576</EPOCH><MEAN_MOTION>14.34219652</MEAN_MOTION><ECCENTRICITY>.00024108</ECCENTRICITY><INCLINATION>86.3978</INCLINATION><RA_OF_ASC_NODE>11.3076</RA_OF_ASC_NODE><ARG_OF_PERICENTER>99.9494</ARG_OF_PERICENTER><MEAN_ANOMALY>260.1974</MEAN_ANOMALY></meanElements><tleParameters><EPHEMERIS_TYPE>0</EPHEMERIS_TYPE><CLASSIFICATION_TYPE>U</CLASSIFICATION_TYPE><NORAD_CAT_ID>43258</NORAD_CAT_ID><ELEMENT_SET_NO>999</ELEMENT_SET_NO><REV_AT_EPOCH>40240</REV_AT_EPOCH><BSTAR>.83140025E-4</BSTAR><MEAN_MOTION_DOT>.253E-5</MEAN_MOTION_DOT><MEAN_MOTION_DDOT>0</MEAN_MOTION_DDOT></tleParameters></data></segment></body></omm>
<omm id="CCSDS_OMM_VERS" version="2.0">
<header><CREATION_DATE/><ORIGINATOR/></header><body><segment><metadata><OBJECT_NAME>IRIDIUM 161</OBJECT_NAME><OBJECT_ID>2018-047C</OBJECT_ID><CENTER_NAME>EARTH</CENTER_NAME><REF_FRAME>TEME</REF_FRAME><TIME_SYSTEM>UTC</TIME_SYSTEM><MEAN_ELEMENT_THEORY>SGP4</MEAN_ELEMENT_THEORY></metadata><data><meanElements><EPOCH>2025-12-06T06:58:27.096960</EPOCH><MEAN_MOTION>14.43277018</MEAN_MOTION><ECCENTRICITY>.00019772</ECCENTRICITY><INCLINATION>86.4509</INCLINATION><RA_OF_ASC_NODE>169.0734</RA_OF_ASC_NODE><ARG_OF_PERICENTER>82.2133</ARG_OF_PERICENTER><MEAN_ANOMALY>277.9292</MEAN_ANOMALY></meanElements><tleParameters><EPHEMERIS_TYPE>0</EPHEMERIS_TYPE><CLASSIFICATION_TYPE>U</CLASSIFICATION_TYPE><NORAD_CAT_ID>43478</NORAD_CAT_ID><ELEMENT_SET_NO>999</ELEMENT_SET_NO><REV_AT_EPOCH>39731</REV_AT_EPOCH><BSTAR>.67213427E-4</BSTAR><MEAN_MOTION_DOT>.246E-5</MEAN_MOTION_DOT><MEAN_MOTION_DDOT>0</MEAN_MOTION_DDOT></tleParameters></data></segment></body></omm>
<omm id="CCSDS_OMM_VERS" version="2.0">
<header><CREATION_DATE/><ORIGINATOR/></header><body><segment><metadata><OBJECT_NAME>IRIDIUM 152</OBJECT_NAME><OBJECT_ID>2018-047D</OBJECT_ID><CENTER_NAME>EARTH</CENTER_NAME><REF_FRAME>TEME</REF_FRAME><TIME_SYSTEM>UTC</TIME_SYSTEM><MEAN_ELEMENT_THEORY>SGP4</MEAN_ELEMENT_THEORY></metadata><data><meanElements><EPOCH>2025-12-06T04:36:18.249696</EPOCH><MEAN_MOTION>14.34218385</MEAN_MOTION><ECCENTRICITY>.00018528</ECCENTRICITY><INCLINATION>86.3983</INCLINATION><RA_OF_ASC_NODE>168.9751</RA_OF_ASC_NODE><ARG_OF_PERICENTER>86.2979</ARG_OF_PERICENTER><MEAN_ANOMALY>273.8429</MEAN_ANOMALY></meanElements><tleParameters><EPHEMERIS_TYPE>0</EPHEMERIS_TYPE><CLASSIFICATION_TYPE>U</CLASSIFICATION_TYPE><NORAD_CAT_ID>43479</NORAD_CAT_ID><ELEMENT_SET_NO>999</ELEMENT_SET_NO><REV_AT_EPOCH>39482</REV_AT_EPOCH><BSTAR>.55631496E-4</BSTAR><MEAN_MOTION_DOT>.176E-5</MEAN_MOTION_DOT><MEAN_MOTION_DDOT>0</MEAN_MOTION_DDOT></tleParameters></data></segment></body></omm>
<omm id="CCSDS_OMM_VERS" version="2.0">
<header><CREATION_DATE/><ORIGINATOR/></header><body><segment><metadata><OBJECT_NAME>IRIDIUM 147</OBJECT_NAME><OBJECT_ID>2018-047E</OBJECT_ID><CENTER_NAME>EARTH</CENTER_NAME><REF_FRAME>TEME</REF_FRAME><TIME_SYSTEM>UTC</TIME_SYSTEM><MEAN_ELEMENT_THEORY>SGP4</MEAN_ELEMENT_THEORY></metadata><data><meanElements><EPOCH>2025-12-06T06:25:53.864256</EPOCH><MEAN_MOTION>14.34218013</MEAN_MOTION><ECCENTRICITY>.00020713</ECCENTRICITY><INCLINATION>86.3984</INCLINATION><RA_OF_ASC_NODE>168.9452</RA_OF_ASC_NODE><ARG_OF_PERICENTER>85.8503</ARG_OF_PERICENTER><MEAN_ANOMALY>274.2930</MEAN_ANOMALY></meanElements><tleParameters><EPHEMERIS_TYPE>0</EPHEMERIS_TYPE><CLASSIFICATION_TYPE>U</CLASSIFICATION_TYPE><NORAD_CAT_ID>43480</NORAD_CAT_ID><ELEMENT_SET_NO>999</ELEMENT_SET_NO><REV_AT_EPOCH>39483</REV_AT_EPOCH><BSTAR>.21704976E-4</BSTAR><MEAN_MOTION_DOT>.81E-6</MEAN_MOTION_DOT><MEAN_MOTION_DDOT>0</MEAN_MOTION_DDOT></tleParameters></data></segment></body></omm>
<omm id="CCSDS_OMM_VERS" version="2.0">
<header><CREATION_DATE/><ORIGINATOR/></header><body><segment><metadata><OBJECT_NAME>IRIDIUM 110</OBJECT_NAME><OBJECT_ID>2018-047F</OBJECT_ID><CENTER_NAME>EARTH</CENTER_NAME><REF_FRAME>TEME</REF_FRAME><TIME_SYSTEM>UTC</TIME_SYSTEM><MEAN_ELEMENT_THEORY>SGP4</MEAN_ELEMENT_THEORY></metadata><data><meanElements><EPOCH>2025-12-06T06:35:01.850208</EPOCH><MEAN_MOTION>14.34218362</MEAN_MOTION><ECCENTRICITY>.00018267</ECCENTRICITY><INCLINATION>86.3988</INCLINATION><RA_OF_ASC_NODE>169.0292</RA_OF_ASC_NODE><ARG_OF_PERICENTER>74.0631</ARG_OF_PERICENTER><MEAN_ANOMALY>286.0766</MEAN_ANOMALY></meanElements><tleParameters><EPHEMERIS_TYPE>0</EPHEMERIS_TYPE><CLASSIFICATION_TYPE>U</CLASSIFICATION_TYPE><NORAD_CAT_ID>43481</NORAD_CAT_ID><ELEMENT_SET_NO>999</ELEMENT_SET_NO><REV_AT_EPOCH>39482</REV_AT_EPOCH><BSTAR>.56988131E-4</BSTAR><MEAN_MOTION_DOT>.179E-5</MEAN_MOTION_DOT><MEAN_MOTION_DDOT>0</MEAN_MOTION_DDOT></tleParameters></data></segment></body></omm>
<omm id="CCSDS_OMM_VERS" version="2.0">
<header><CREATION_DATE/><ORIGINATOR/></header><body><segment><metadata><OBJECT_NAME>IRIDIUM 162</OBJECT_NAME><OBJECT_ID>2018-047G</OBJECT_ID><CENTER_NAME>EARTH</CENTER_NAME><REF_FRAME>TEME</REF_FRAME><TIME_SYSTEM>UTC</TIME_SYSTEM><MEAN_ELEMENT_THEORY>SGP4</MEAN_ELEMENT_THEORY></metadata><data><meanElements><EPOCH>2025-12-06T06:49:23.111328</EPOCH><MEAN_MOTION>14.43282677</MEAN_MOTION><ECCENTRICITY>.00016518</ECCENTRICITY><INCLINATION>86.4509</INCLINATION><RA_OF_ASC_NODE>168.9695</RA_OF_ASC_NODE><ARG_OF_PERICENTER>91.4294</ARG_OF_PERICENTER><MEAN_ANOMALY>268.7096</MEAN_ANOMALY></meanElements><tleParameters><EPHEMERIS_TYPE>0</EPHEMERIS_TYPE><CLASSIFICATION_TYPE>U</CLASSIFICATION_TYPE><NORAD_CAT_ID>43482</NORAD_CAT_ID><ELEMENT_SET_NO>999</ELEMENT_SET_NO><REV_AT_EPOCH>39730</REV_AT_EPOCH><BSTAR>.50884467E-4</BSTAR><MEAN_MOTION_DOT>.191E-5</MEAN_MOTION_DOT><MEAN_MOTION_DDOT>0</MEAN_MOTION_DDOT></tleParameters></data></segment></body></omm>
<omm id="CCSDS_OMM_VERS" version="2.0">
<header><CREATION_DATE/><ORIGINATOR/></header><body><segment><metadata><OBJECT_NAME>IRIDIUM 160</OBJECT_NAME><OBJECT_ID>2018-061A</OBJECT_ID><CENTER_NAME>EARTH</CENTER_NAME><REF_FRAME>TEME</REF_FRAME><TIME_SYSTEM>UTC</TIME_SYSTEM><MEAN_ELEMENT_THEORY>SGP4</MEAN_ELEMENT_THEORY></metadata><data><meanElements><EPOCH>2025-12-06T03:36:34.251552</EPOCH><MEAN_MOTION>14.34219378</MEAN_MOTION><ECCENTRICITY>.00019394</ECCENTRICITY><INCLINATION>86.3969</INCLINATION><RA_OF_ASC_NODE>137.5044</RA_OF_ASC_NODE><ARG_OF_PERICENTER>85.0786</ARG_OF_PERICENTER><MEAN_ANOMALY>275.0632</MEAN_ANOMALY></meanElements><tleParameters><EPHEMERIS_TYPE>0</EPHEMERIS_TYPE><CLASSIFICATION_TYPE>U</CLASSIFICATION_TYPE><NORAD_CAT_ID>43569</NORAD_CAT_ID><ELEMENT_SET_NO>999</ELEMENT_SET_NO><REV_AT_EPOCH>38570</REV_AT_EPOCH><BSTAR>.79822756E-4</BSTAR><MEAN_MOTION_DOT>.243E-5</MEAN_MOTION_DOT><MEAN_MOTION_DDOT>0</MEAN_MOTION_DDOT></tleParameters></data></segment></body></omm>

</ndm>
