IRIDIUM 150             
1 43257U 18030J   25340.09864786  .00000232  00000+0  75810-4 0  9996
2 43257  86.3978  11.1852 0002269  96.9960 263.1494 14.34219947402481
IRIDIUM 143             
1 43258U 18030K   25340.00985334  .00000253  00000+0  83140-4 0  9999
2 43258  86.3978  11.3076 0002410  99.9494 260.1974 14.34219652402400
IRIDIUM 161             
1 43478U 18047C   25340.29059140  .00000246  00000+0  67213-4 0  9994
2 43478  86.4509 169.0734 0001977  82.2133 277.9292 14.43277018397311
IRIDIUM 152             
1 43479U 18047D   25340.19187789  .00000176  00000+0  55631-4 0  9998
2 43479  86.3983 168.9751 0001852  86.2979 273.8429 14.34218385394820
IRIDIUM 147             
1 43480U 18047E   25340.26798454  .00000081  00000+0  21705-4 0  9995
2 43480  86.3984 168.9452 0002071  85.8503 274.2930 14.34218013394834
IRIDIUM 110             
1 43481U 18047F   25340.27432697  .00000179  00000+0  56988-4 0  9990
2 43481  86.3988 169.0292 0001826  74.0631 286.0766 14.34218362394826
IRIDIUM 162             
1 43482U 18047G   25340.28429527  .00000191  00000+0  50884-4 0  9993
2 43482  86.4509 168.9695 0001651  91.4294 268.7096 14.43282677397305
IRIDIUM 160             
1 43569U 18061A   25340.15039643  .00000243  00000+0  79823-4 0  9999
2 43569  86.3969 137.5044 0001939  85.0786 275.0632 14.34219378385700
